LEMUR-2-LEIA-PHILIP     
1 63246U 25052AN  26188.51864188  .00001930  00000+0  17109-3 0  9994
2 63246  97.6815  80.1253 0004889 138.7865 221.3727 14.97376769 71714
LEMUR-2-LIA-MARTIN      
1 63248U 25052AQ  26187.64800424  .00004626  00000+0  39684-3 0  9999
2 63248  97.6861  79.7730 0005203 111.5295 248.6482 14.97976249 71593
LEMUR-2-DELOITTE-1      
1 63259U 25052BB  26188.69600532  .00002391  00000+0  20879-3 0  9998
2 63259  97.6883  81.1366 0002285  66.1516 293.9945 14.97747072 71765
LEMUR-2-EMERSONROSE     
1 63261U 25052BD  26188.18377091  .00003566  00000+0  29729-3 0  9994
2 63261  97.6871  81.2273 0002748  73.8140 286.3386 14.99240847 71737
LEMUR-2-MARACHE-FRAN    
1 63262U 25052BE  26188.67885867  .00002453  00000+0  20052-3 0  9998
2 63262  97.6864  82.0740 0004540 287.5282  72.5445 15.00283494 71831
LEMUR-2-THEFALCONER     
1 63264U 25052BG  26188.52495062  .00002954  00000+0  25819-3 0  9990
2 63264  97.6846  80.5658 0000897  26.3470 333.7797 14.97535872 71739
LEMUR-2-UNTITLED-SC     
1 63351U 25061A   26188.51735684  .00002011  00000+0  11526-3 0  9997
2 63351  97.5648 163.7332 0018398 189.2153 170.8744 15.13613803 70663
LEMUR-2-ESPERANZA       
1 63352U 25061B   26188.36102578  .00003389  00000+0  19115-3 0  9992
2 63352  97.5652 163.6759 0018011 189.3073 170.7827 15.13720454 70645
LEMUR-2-KREMPEL-BRO2    
1 63353U 25061C   26188.51436627  .00002040  00000+0  11515-3 0  9994
2 63353  97.5701 164.3879 0019171 181.1590 178.9600 15.14144682 70681
LEMUR-2-THERMORAPTOR    
1 63354U 25061D   26188.42926386  .00002562  00000+0  14336-3 0  9994
2 63354  97.5706 164.3826 0018930 180.3649 179.7572 15.14226483 70673
LEMUR-2-NEUROSPICY      
1 63355U 25061E   26188.46546121  .00002707  00000+0  15088-3 0  9990
2 63355  97.5635 164.0292 0016679 183.0672 177.0461 15.14346479 70680
LEMUR-2-TILLINFINITY    
1 63356U 25061F   26188.36080622  .00002745  00000+0  15039-3 0  9997
2 63356  97.5620 164.2297 0018249 172.0497 188.1027 15.14927907 70693
LEMUR-2-KREMPEL-BRO1    
1 63357U 25061G   26188.40291932  .00002911  00000+0  16005-3 0  9990
2 63357  97.5621 164.1821 0018889 173.2750 186.8739 15.14737364 70693
LEMUR-2-LANGER2SPACE    
1 63358U 25061H   26188.49954692  .00002376  00000+0  13256-3 0  9999
2 63358  97.5624 164.0841 0016629 181.3139 178.8052 15.14430042 70691
LEMUR-2-BALTO           
1 63395U 25052BH  26188.19657571  .00003856  00000+0  31220-3 0  9998
2 63395  97.6926  81.5775 0005648 359.1139   1.0073 15.00313404 71767
LEMUR-2-KRISH           
1 64561U 25135AK  26188.27005824  .00004210  00000+0  37657-3 0  9998
2 64561  97.7760 303.0109 0001744 100.7810 259.3608 14.96401488 56929
